{"type":"FeatureCollection","name":"beijing_custom_plate_centers_final","metadata":{"generatedAt":"2026-06-16T06:15:01.290Z","totalPlates":38,"centerCount":38,"note":"已补齐38/38个板块中心点；高德Web服务未返回北京自定义板块真实polyline边界，页面不绘制模拟板块面。"},"features":[{"type":"Feature","properties":{"plate":"上地","matched":"上地","confidence":"高","source":"房天下公开地图商圈中心点","sourceUrl":"https://map.fang.com/bj/t2/","note":""},"geometry":{"type":"Point","coordinates":[116.31825256347656,40.04045867919922]}},{"type":"Feature","properties":{"plate":"中央别墅区","matched":"中央别墅区","confidence":"高","source":"房天下公开地图商圈中心点","sourceUrl":"https://map.fang.com/bj/t2/","note":""},"geometry":{"type":"Point","coordinates":[116.5842056274414,40.03563690185547]}},{"type":"Feature","properties":{"plate":"丽泽","matched":"丽泽桥","confidence":"中","source":"房天下公开地图商圈中心点","sourceUrl":"https://map.fang.com/bj/t2/","note":""},"geometry":{"type":"Point","coordinates":[116.31971740722656,39.873966217041016]}},{"type":"Feature","properties":{"plate":"仁和","matched":"顺义城","confidence":"中","source":"房天下公开地图商圈中心点","sourceUrl":"https://map.fang.com/bj/t2/","note":""},"geometry":{"type":"Point","coordinates":[116.65216064453125,40.13093566894531]}},{"type":"Feature","properties":{"plate":"北七家","matched":"北七家","confidence":"高","source":"房天下公开地图商圈中心点","sourceUrl":"https://map.fang.com/bj/t2/","note":""},"geometry":{"type":"Point","coordinates":[116.4373550415039,40.124183654785156]}},{"type":"Feature","properties":{"plate":"十八里店","matched":"十八里店","confidence":"高","source":"房天下公开地图商圈中心点","sourceUrl":"https://map.fang.com/bj/t2/","note":""},"geometry":{"type":"Point","coordinates":[116.50244903564453,39.850364685058594]}},{"type":"Feature","properties":{"plate":"南邵","matched":"南邵","confidence":"高","source":"房天下公开地图商圈中心点","sourceUrl":"https://map.fang.com/bj/t2/","note":""},"geometry":{"type":"Point","coordinates":[116.29241943359375,40.21438217163086]}},{"type":"Feature","properties":{"plate":"后沙峪","matched":"后沙峪","confidence":"高","source":"房天下公开地图商圈中心点","sourceUrl":"https://map.fang.com/bj/t2/","note":""},"geometry":{"type":"Point","coordinates":[116.53878021240234,40.11865234375]}},{"type":"Feature","properties":{"plate":"四季青","matched":"四季青","confidence":"高","source":"房天下公开地图商圈中心点","sourceUrl":"https://map.fang.com/bj/t2/","note":""},"geometry":{"type":"Point","coordinates":[116.26902770996094,39.96097183227539]}},{"type":"Feature","properties":{"plate":"回龙观","matched":"回龙观","confidence":"高","source":"房天下公开地图商圈中心点","sourceUrl":"https://map.fang.com/bj/t2/","note":""},"geometry":{"type":"Point","coordinates":[116.33309936523438,40.09676742553711]}},{"type":"Feature","properties":{"plate":"宋庄东","matched":"宋庄","confidence":"中","source":"房天下公开地图商圈中心点","sourceUrl":"https://map.fang.com/bj/t2/","note":""},"geometry":{"type":"Point","coordinates":[116.73635864257812,39.95441818237305]}},{"type":"Feature","properties":{"plate":"新宫","matched":"新宫","confidence":"高","source":"房天下公开地图商圈中心点","sourceUrl":"https://map.fang.com/bj/t2/","note":""},"geometry":{"type":"Point","coordinates":[116.37213134765625,39.81790542602539]}},{"type":"Feature","properties":{"plate":"朝青","matched":"朝青","confidence":"高","source":"房天下公开地图商圈中心点","sourceUrl":"https://map.fang.com/bj/t2/","note":""},"geometry":{"type":"Point","coordinates":[116.53652954101562,39.94194412231445]}},{"type":"Feature","properties":{"plate":"梨园","matched":"梨园","confidence":"高","source":"房天下公开地图商圈中心点","sourceUrl":"https://map.fang.com/bj/t2/","note":""},"geometry":{"type":"Point","coordinates":[116.68269348144531,39.86956024169922]}},{"type":"Feature","properties":{"plate":"次渠","matched":"次渠","confidence":"高","source":"房天下公开地图商圈中心点","sourceUrl":"https://map.fang.com/bj/t2/","note":""},"geometry":{"type":"Point","coordinates":[116.6220932006836,39.821163177490234]}},{"type":"Feature","properties":{"plate":"沙河","matched":"沙河","confidence":"高","source":"房天下公开地图商圈中心点","sourceUrl":"https://map.fang.com/bj/t2/","note":""},"geometry":{"type":"Point","coordinates":[116.31241607666016,40.14664077758789]}},{"type":"Feature","properties":{"plate":"河西","matched":"亦庄","confidence":"低","source":"房天下公开地图商圈中心点","sourceUrl":"https://map.fang.com/bj/t2/","note":""},"geometry":{"type":"Point","coordinates":[116.5242919921875,39.80095291137695]}},{"type":"Feature","properties":{"plate":"清河","matched":"清河","confidence":"高","source":"房天下公开地图商圈中心点","sourceUrl":"https://map.fang.com/bj/t2/","note":""},"geometry":{"type":"Point","coordinates":[116.36847686767578,40.04431915283203]}},{"type":"Feature","properties":{"plate":"百善","matched":"百善镇","confidence":"中","source":"房天下公开地图商圈中心点","sourceUrl":"https://map.fang.com/bj/t2/","note":""},"geometry":{"type":"Point","coordinates":[116.29508972167969,40.19200897216797]}},{"type":"Feature","properties":{"plate":"管庄","matched":"管庄","confidence":"高","source":"房天下公开地图商圈中心点","sourceUrl":"https://map.fang.com/bj/t2/","note":""},"geometry":{"type":"Point","coordinates":[116.60589599609375,39.9149055480957]}},{"type":"Feature","properties":{"plate":"翠湖","matched":"温泉镇","confidence":"中","source":"房天下公开地图商圈中心点","sourceUrl":"https://map.fang.com/bj/t2/","note":""},"geometry":{"type":"Point","coordinates":[116.18717193603516,40.05494689941406]}},{"type":"Feature","properties":{"plate":"良乡","matched":"良乡","confidence":"高","source":"房天下公开地图商圈中心点","sourceUrl":"https://map.fang.com/bj/t2/","note":""},"geometry":{"type":"Point","coordinates":[116.18173217773438,39.71607971191406]}},{"type":"Feature","properties":{"plate":"苹果园","matched":"苹果园","confidence":"高","source":"房天下公开地图商圈中心点","sourceUrl":"https://map.fang.com/bj/t2/","note":""},"geometry":{"type":"Point","coordinates":[116.19513702392578,39.9391975402832]}},{"type":"Feature","properties":{"plate":"西红门","matched":"西红门","confidence":"高","source":"房天下公开地图商圈中心点","sourceUrl":"https://map.fang.com/bj/t2/","note":""},"geometry":{"type":"Point","coordinates":[116.36445617675781,39.79478073120117]}},{"type":"Feature","properties":{"plate":"运河商务区","matched":"运河大街","confidence":"中","source":"房天下公开地图商圈中心点","sourceUrl":"https://map.fang.com/bj/t2/","note":""},"geometry":{"type":"Point","coordinates":[116.6697769165039,39.90073013305664]}},{"type":"Feature","properties":{"plate":"通州老城","matched":"通州北苑","confidence":"中","source":"房天下公开地图商圈中心点","sourceUrl":"https://map.fang.com/bj/t2/","note":""},"geometry":{"type":"Point","coordinates":[116.64289093017578,39.90956497192383]}},{"type":"Feature","properties":{"plate":"酒仙桥","matched":"酒仙桥","confidence":"高","source":"房天下公开地图商圈中心点","sourceUrl":"https://map.fang.com/bj/t2/","note":""},"geometry":{"type":"Point","coordinates":[116.50799560546875,39.97623062133789]}},{"type":"Feature","properties":{"plate":"长阳","matched":"长阳","confidence":"高","source":"房天下公开地图商圈中心点","sourceUrl":"https://map.fang.com/bj/t2/","note":""},"geometry":{"type":"Point","coordinates":[116.20499420166016,39.764808654785156]}},{"type":"Feature","properties":{"plate":"门头沟新城","matched":"永定","confidence":"中","source":"房天下公开地图商圈中心点","sourceUrl":"https://map.fang.com/bj/t2/","note":""},"geometry":{"type":"Point","coordinates":[116.11483764648438,39.91083526611328]}},{"type":"Feature","properties":{"plate":"高米店","matched":"高米店","confidence":"高","source":"房天下公开地图商圈中心点","sourceUrl":"https://map.fang.com/bj/t2/","note":""},"geometry":{"type":"Point","coordinates":[116.33840942382812,39.76905822753906]}},{"type":"Feature","properties":{"plate":"高立庄","matched":"花乡街道","confidence":"中","source":"高德中心点","sourceUrl":"https://restapi.amap.com/v3/config/district","note":"高德匹配到花乡街道，作为板块中心辅助定位"},"geometry":{"type":"Point","coordinates":[116.295197,39.790954]}},{"type":"Feature","properties":{"plate":"金盏北","matched":"北京市朝阳区金盏乡","confidence":"中","source":"高德中心点","sourceUrl":"https://restapi.amap.com/v3/config/district","note":"高德匹配到金盏乡，作为板块中心辅助定位"},"geometry":{"type":"Point","coordinates":[116.568902,40.003503]}},{"type":"Feature","properties":{"plate":"京西商务","matched":"苹果园街道","confidence":"低","source":"高德中心点","sourceUrl":"https://restapi.amap.com/v3/config/district","note":"高德匹配到苹果园街道，业务板块中心需人工复核"},"geometry":{"type":"Point","coordinates":[116.174836,39.960642]}},{"type":"Feature","properties":{"plate":"狼垡","matched":"北京市大兴区狼垡","confidence":"中","source":"高德中心点","sourceUrl":"https://restapi.amap.com/v3/config/district","note":"高德匹配到狼垡村庄点，作为板块中心辅助定位"},"geometry":{"type":"Point","coordinates":[116.280451,39.778869]}},{"type":"Feature","properties":{"plate":"马池口","matched":"马池口镇","confidence":"高","source":"高德中心点","sourceUrl":"https://restapi.amap.com/v3/config/district","note":"高德匹配到马池口镇，作为板块中心辅助定位"},"geometry":{"type":"Point","coordinates":[116.221856,40.201378]}},{"type":"Feature","properties":{"plate":"小屯","matched":"北京市丰台区小屯","confidence":"中","source":"高德中心点","sourceUrl":"https://restapi.amap.com/v3/config/district","note":"高德匹配到小屯村庄点，作为板块中心辅助定位"},"geometry":{"type":"Point","coordinates":[116.246667,39.865465]}},{"type":"Feature","properties":{"plate":"总部基地","matched":"看丹街道","confidence":"中","source":"高德中心点","sourceUrl":"https://restapi.amap.com/v3/config/district","note":"高德匹配到看丹街道，作为总部基地板块辅助定位"},"geometry":{"type":"Point","coordinates":[116.275831,39.820784]}},{"type":"Feature","properties":{"plate":"永丰","matched":"永丰板块项目坐标聚合中心","confidence":"中","source":"项目坐标聚合中心点","sourceUrl":"北京各板块项目去化分析项目坐标","note":"高德未返回可靠永丰板块边界或中心，使用该板块已核验项目坐标均值辅助定位"},"geometry":{"type":"Point","coordinates":[116.237067,40.075618]}}]}